CCSDS_OMM_VERS = 2.0
CREATION_DATE  = 
ORIGINATOR     = 

OBJECT_NAME    = KUIPER-00146
OBJECT_ID      = 2025-228W
CENTER_NAME    = EARTH
REF_FRAME      = TEME
TIME_SYSTEM    = UTC
MEAN_ELEMENT_THEORY = SGP/SGP4

EPOCH          = 2025-10-27T19:42:29.761920
MEAN_MOTION    = 15.34497565
ECCENTRICITY   = .0005697
INCLINATION    = 51.8803
RA_OF_ASC_NODE = 241.7922
ARG_OF_PERICENTER = 187.6113
MEAN_ANOMALY   = 172.4787

EPHEMERIS_TYPE = 0
CLASSIFICATION_TYPE = U
NORAD_CAT_ID   = 65967
ELEMENT_SET_NO = 999
REV_AT_EPOCH   = 336
BSTAR          = .86623E-3
MEAN_MOTION_DOT = .29133E-3
MEAN_MOTION_DDOT = 0

CCSDS_OMM_VERS = 2.0
CREATION_DATE  = 
ORIGINATOR     = 

OBJECT_NAME    = KUIPER-00149
OBJECT_ID      = 2025-228X
CENTER_NAME    = EARTH
REF_FRAME      = TEME
TIME_SYSTEM    = UTC
MEAN_ELEMENT_THEORY = SGP/SGP4

EPOCH          = 2025-10-27T21:13:51.608640
MEAN_MOTION    = 15.34686848
ECCENTRICITY   = .0005706
INCLINATION    = 51.8800
RA_OF_ASC_NODE = 241.4624
ARG_OF_PERICENTER = 185.6043
MEAN_ANOMALY   = 174.4880

EPHEMERIS_TYPE = 0
CLASSIFICATION_TYPE = U
NORAD_CAT_ID   = 65968
ELEMENT_SET_NO = 999
REV_AT_EPOCH   = 337
BSTAR          = .96432E-3
MEAN_MOTION_DOT = .32688E-3
MEAN_MOTION_DDOT = 0

CCSDS_OMM_VERS = 2.0
CREATION_DATE  = 
ORIGINATOR     = 

OBJECT_NAME    = KUIPER-00154
OBJECT_ID      = 2025-228Y
CENTER_NAME    = EARTH
REF_FRAME      = TEME
TIME_SYSTEM    = UTC
MEAN_ELEMENT_THEORY = SGP/SGP4

EPOCH          = 2025-10-27T21:12:57.472128
MEAN_MOTION    = 15.34751014
ECCENTRICITY   = .00059
INCLINATION    = 51.8798
RA_OF_ASC_NODE = 241.4586
ARG_OF_PERICENTER = 182.9309
MEAN_ANOMALY   = 177.1643

EPHEMERIS_TYPE = 0
CLASSIFICATION_TYPE = U
NORAD_CAT_ID   = 65969
ELEMENT_SET_NO = 999
REV_AT_EPOCH   = 337
BSTAR          = .86371E-3
MEAN_MOTION_DOT = .29286E-3
MEAN_MOTION_DDOT = 0

CCSDS_OMM_VERS = 2.0
CREATION_DATE  = 
ORIGINATOR     = 

OBJECT_NAME    = KUIPER-00157
OBJECT_ID      = 2025-228Z
CENTER_NAME    = EARTH
REF_FRAME      = TEME
TIME_SYSTEM    = UTC
MEAN_ELEMENT_THEORY = SGP/SGP4

EPOCH          = 2025-10-27T21:19:27.192288
MEAN_MOTION    = 15.34290135
ECCENTRICITY   = .0005767
INCLINATION    = 51.8807
RA_OF_ASC_NODE = 241.4928
ARG_OF_PERICENTER = 200.0102
MEAN_ANOMALY   = 160.0658

EPHEMERIS_TYPE = 0
CLASSIFICATION_TYPE = U
NORAD_CAT_ID   = 65970
ELEMENT_SET_NO = 999
REV_AT_EPOCH   = 337
BSTAR          = .53856E-3
MEAN_MOTION_DOT = .17822E-3
MEAN_MOTION_DDOT = 0

CCSDS_OMM_VERS = 2.0
CREATION_DATE  = 
ORIGINATOR     = 

OBJECT_NAME    = STRIX-5
OBJECT_ID      = 2025-229A
CENTER_NAME    = EARTH
REF_FRAME      = TEME
TIME_SYSTEM    = UTC
MEAN_ELEMENT_THEORY = SGP/SGP4

EPOCH          = 2025-10-24T06:59:29.826816
MEAN_MOTION    = 15.01617112
ECCENTRICITY   = .0040828
INCLINATION    = 41.9263
RA_OF_ASC_NODE = 152.9596
ARG_OF_PERICENTER = 308.1192
MEAN_ANOMALY   = 51.5956

EPHEMERIS_TYPE = 0
CLASSIFICATION_TYPE = U
NORAD_CAT_ID   = 65971
ELEMENT_SET_NO = 999
REV_AT_EPOCH   = 147
BSTAR          = .53274E-3
MEAN_MOTION_DOT = .6967E-4
MEAN_MOTION_DDOT = 0

CCSDS_OMM_VERS = 2.0
CREATION_DATE  = 
ORIGINATOR     = 

OBJECT_NAME    = ELECTRON R/B
OBJECT_ID      = 2025-229B
CENTER_NAME    = EARTH
REF_FRAME      = TEME
TIME_SYSTEM    = UTC
MEAN_ELEMENT_THEORY = SGP/SGP4

EPOCH          = 2025-10-27T19:35:50.288064
MEAN_MOTION    = 15.01655045
ECCENTRICITY   = .0040246
INCLINATION    = 41.9267
RA_OF_ASC_NODE = 133.4960
ARG_OF_PERICENTER = 330.6192
MEAN_ANOMALY   = 29.2371

EPHEMERIS_TYPE = 0
CLASSIFICATION_TYPE = U
NORAD_CAT_ID   = 65972
ELEMENT_SET_NO = 999
REV_AT_EPOCH   = 198
BSTAR          = .42593E-3
MEAN_MOTION_DOT = .5533E-4
MEAN_MOTION_DDOT = 0

CCSDS_OMM_VERS = 2.0
CREATION_DATE  = 
ORIGINATOR     = 

OBJECT_NAME    = ELECTRON KICK STAGE R/B
OBJECT_ID      = 2025-229C
CENTER_NAME    = EARTH
REF_FRAME      = TEME
TIME_SYSTEM    = UTC
MEAN_ELEMENT_THEORY = SGP/SGP4

EPOCH          = 2025-10-27T17:49:40.293408
MEAN_MOTION    = 15.02507266
ECCENTRICITY   = .0041288
INCLINATION    = 41.9821
RA_OF_ASC_NODE = 133.8861
ARG_OF_PERICENTER = 330.2779
MEAN_ANOMALY   = 29.5703

EPHEMERIS_TYPE = 0
CLASSIFICATION_TYPE = U
NORAD_CAT_ID   = 65973
ELEMENT_SET_NO = 999
REV_AT_EPOCH   = 196
BSTAR          = .53075E-3
MEAN_MOTION_DOT = .7112E-4
MEAN_MOTION_DDOT = 0

CCSDS_OMM_VERS = 2.0
CREATION_DATE  = 
ORIGINATOR     = 

OBJECT_NAME    = HULIANWANG DIGUI 12A
OBJECT_ID      = 2025-231A
CENTER_NAME    = EARTH
REF_FRAME      = TEME
TIME_SYSTEM    = UTC
MEAN_ELEMENT_THEORY = SGP/SGP4

EPOCH          = 2025-10-27T15:07:58.935072
MEAN_MOTION    = 14.03845194
ECCENTRICITY   = .0006418
INCLINATION    = 50.0009
RA_OF_ASC_NODE = 310.6285
ARG_OF_PERICENTER = 293.6377
MEAN_ANOMALY   = 66.3853

EPHEMERIS_TYPE = 0
CLASSIFICATION_TYPE = U
NORAD_CAT_ID   = 65995
ELEMENT_SET_NO = 999
REV_AT_EPOCH   = 163
BSTAR          = .13232E-3
MEAN_MOTION_DOT = .58E-6
MEAN_MOTION_DDOT = 0

CCSDS_OMM_VERS = 2.0
CREATION_DATE  = 
ORIGINATOR     = 

OBJECT_NAME    = HULIANWANG DIGUI 12B
OBJECT_ID      = 2025-231B
CENTER_NAME    = EARTH
REF_FRAME      = TEME
TIME_SYSTEM    = UTC
MEAN_ELEMENT_THEORY = SGP/SGP4

EPOCH          = 2025-10-27T16:54:42.827904
MEAN_MOTION    = 14.03876331
ECCENTRICITY   = .0008993
INCLINATION    = 49.9998
RA_OF_ASC_NODE = 310.3531
ARG_OF_PERICENTER = 299.3759
MEAN_ANOMALY   = 60.6247

EPHEMERIS_TYPE = 0
CLASSIFICATION_TYPE = U
NORAD_CAT_ID   = 65996
ELEMENT_SET_NO = 999
REV_AT_EPOCH   = 164
BSTAR          = .15373E-3
MEAN_MOTION_DOT = .93E-6
MEAN_MOTION_DDOT = 0

CCSDS_OMM_VERS = 2.0
CREATION_DATE  = 
ORIGINATOR     = 

OBJECT_NAME    = HULIANWANG DIGUI 12C
OBJECT_ID      = 2025-231C
CENTER_NAME    = EARTH
REF_FRAME      = TEME
TIME_SYSTEM    = UTC
MEAN_ELEMENT_THEORY = SGP/SGP4

EPOCH          = 2025-10-27T16:49:04.604736
MEAN_MOTION    = 14.03879853
ECCENTRICITY   = .0007537
INCLINATION    = 49.9975
RA_OF_ASC_NODE = 310.3283
ARG_OF_PERICENTER = 298.7638
MEAN_ANOMALY   = 61.2509

EPHEMERIS_TYPE = 0
CLASSIFICATION_TYPE = U
NORAD_CAT_ID   = 65997
ELEMENT_SET_NO = 999
REV_AT_EPOCH   = 164
BSTAR          = .16773E-3
MEAN_MOTION_DOT = .115E-5
MEAN_MOTION_DDOT = 0

CCSDS_OMM_VERS = 2.0
CREATION_DATE  = 
ORIGINATOR     = 

OBJECT_NAME    = HULIANWANG DIGUI 12D
OBJECT_ID      = 2025-231D
CENTER_NAME    = EARTH
REF_FRAME      = TEME
TIME_SYSTEM    = UTC
MEAN_ELEMENT_THEORY = SGP/SGP4

EPOCH          = 2025-10-27T13:22:15.728736
MEAN_MOTION    = 14.04581753
ECCENTRICITY   = .000664
INCLINATION    = 50.0000
RA_OF_ASC_NODE = 310.9063
ARG_OF_PERICENTER = 304.2879
MEAN_ANOMALY   = 55.7397

EPHEMERIS_TYPE = 0
CLASSIFICATION_TYPE = U
NORAD_CAT_ID   = 65998
ELEMENT_SET_NO = 999
REV_AT_EPOCH   = 162
BSTAR          = .18705E-3
MEAN_MOTION_DOT = .149E-5
MEAN_MOTION_DDOT = 0

CCSDS_OMM_VERS = 2.0
CREATION_DATE  = 
ORIGINATOR     = 

OBJECT_NAME    = HULIANWANG DIGUI 12E
OBJECT_ID      = 2025-231E
CENTER_NAME    = EARTH
REF_FRAME      = TEME
TIME_SYSTEM    = UTC
MEAN_ELEMENT_THEORY = SGP/SGP4

EPOCH          = 2025-10-27T13:21:19.094400
MEAN_MOTION    = 14.04227065
ECCENTRICITY   = .0008111
INCLINATION    = 50.0020
RA_OF_ASC_NODE = 310.9058
ARG_OF_PERICENTER = 314.7618
MEAN_ANOMALY   = 45.2626

EPHEMERIS_TYPE = 0
CLASSIFICATION_TYPE = U
NORAD_CAT_ID   = 65999
ELEMENT_SET_NO = 999
REV_AT_EPOCH   = 162
BSTAR          = .1519E-3
MEAN_MOTION_DOT = .91E-6
MEAN_MOTION_DDOT = 0

